[{"OBJECT_NAME":"STARLINK-4251","OBJECT_ID":"2022-077AS","EPOCH":"2026-03-10T11:38:19.558176","MEAN_MOTION":15.05647555,"ECCENTRICITY":0.0001871,"INCLINATION":97.602,"RA_OF_ASC_NODE":251.9648,"ARG_OF_PERICENTER":89.8388,"MEAN_ANOMALY":270.3054,"EPHEMERIS_TYPE":0,"CLASSIFICATION_TYPE":"U","NORAD_CAT_ID":53083,"ELEMENT_SET_NO":999,"REV_AT_EPOCH":20110,"BSTAR":1.48e-5,"MEAN_MOTION_DOT":1.53e-6,"MEAN_MOTION_DDOT":0},{"OBJECT_NAME":"STARLINK-4319","OBJECT_ID":"2022-077AT","EPOCH":"2026-03-10T11:34:18.499584","MEAN_MOTION":15.05671497,"ECCENTRICITY":0.0001,"INCLINATION":97.6023,"RA_OF_ASC_NODE":251.9939,"ARG_OF_PERICENTER":102.5074,"MEAN_ANOMALY":257.6265,"EPHEMERIS_TYPE":0,"CLASSIFICATION_TYPE":"U","NORAD_CAT_ID":53084,"ELEMENT_SET_NO":999,"REV_AT_EPOCH":20110,"BSTAR":0.00019784,"MEAN_MOTION_DOT":2.797e-5,"MEAN_MOTION_DDOT":0},{"OBJECT_NAME":"STARLINK-4324","OBJECT_ID":"2022-077AU","EPOCH":"2026-03-10T11:54:16.532352","MEAN_MOTION":15.05647041,"ECCENTRICITY":0.0001638,"INCLINATION":97.6022,"RA_OF_ASC_NODE":251.9671,"ARG_OF_PERICENTER":87.0974,"MEAN_ANOMALY":273.044,"EPHEMERIS_TYPE":0,"CLASSIFICATION_TYPE":"U","NORAD_CAT_ID":53085,"ELEMENT_SET_NO":999,"REV_AT_EPOCH":20110,"BSTAR":3.6861e-5,"MEAN_MOTION_DOT":4.71e-6,"MEAN_MOTION_DDOT":0},{"OBJECT_NAME":"STARLINK-4318","OBJECT_ID":"2022-077AV","EPOCH":"2026-03-10T12:23:42.626112","MEAN_MOTION":15.01506311,"ECCENTRICITY":0.0002071,"INCLINATION":97.6028,"RA_OF_ASC_NODE":251.0317,"ARG_OF_PERICENTER":103.5877,"MEAN_ANOMALY":256.5578,"EPHEMERIS_TYPE":0,"CLASSIFICATION_TYPE":"U","NORAD_CAT_ID":53086,"ELEMENT_SET_NO":999,"REV_AT_EPOCH":20104,"BSTAR":0.0023375,"MEAN_MOTION_DOT":0.0003029,"MEAN_MOTION_DDOT":0},{"OBJECT_NAME":"STARLINK-4333","OBJECT_ID":"2022-077AX","EPOCH":"2026-03-10T12:18:43.095456","MEAN_MOTION":15.01264683,"ECCENTRICITY":0.000243,"INCLINATION":97.6022,"RA_OF_ASC_NODE":251.0296,"ARG_OF_PERICENTER":43.4814,"MEAN_ANOMALY":316.6602,"EPHEMERIS_TYPE":0,"CLASSIFICATION_TYPE":"U","NORAD_CAT_ID":53088,"ELEMENT_SET_NO":999,"REV_AT_EPOCH":20104,"BSTAR":0.00014605,"MEAN_MOTION_DOT":1.818e-5,"MEAN_MOTION_DDOT":0},{"OBJECT_NAME":"STARLINK-4150","OBJECT_ID":"2022-083C","EPOCH":"2026-03-10T11:16:08.905728","MEAN_MOTION":15.08840627,"ECCENTRICITY":0.0001054,"INCLINATION":53.2174,"RA_OF_ASC_NODE":170.6173,"ARG_OF_PERICENTER":90.0708,"MEAN_ANOMALY":270.0405,"EPHEMERIS_TYPE":0,"CLASSIFICATION_TYPE":"U","NORAD_CAT_ID":53134,"ELEMENT_SET_NO":999,"REV_AT_EPOCH":20133,"BSTAR":-0.00013634,"MEAN_MOTION_DOT":-2.457e-5,"MEAN_MOTION_DDOT":0},{"OBJECT_NAME":"STARLINK-4023","OBJECT_ID":"2022-083D","EPOCH":"2026-03-10T11:26:44.876256","MEAN_MOTION":15.08846083,"ECCENTRICITY":0.0001281,"INCLINATION":53.2152,"RA_OF_ASC_NODE":170.586,"ARG_OF_PERICENTER":82.583,"MEAN_ANOMALY":277.5308,"EPHEMERIS_TYPE":0,"CLASSIFICATION_TYPE":"U","NORAD_CAT_ID":53135,"ELEMENT_SET_NO":999,"REV_AT_EPOCH":20232,"BSTAR":0.00042018,"MEAN_MOTION_DOT":6.407e-5,"MEAN_MOTION_DDOT":0},{"OBJECT_NAME":"STARLINK-4152","OBJECT_ID":"2022-083E","EPOCH":"2026-03-10T11:21:26.823168","MEAN_MOTION":15.08838511,"ECCENTRICITY":0.0001408,"INCLINATION":53.2189,"RA_OF_ASC_NODE":170.6048,"ARG_OF_PERICENTER":93.8574,"MEAN_ANOMALY":266.2579,"EPHEMERIS_TYPE":0,"CLASSIFICATION_TYPE":"U","NORAD_CAT_ID":53136,"ELEMENT_SET_NO":999,"REV_AT_EPOCH":20232,"BSTAR":6.1571e-5,"MEAN_MOTION_DOT":6.92e-6,"MEAN_MOTION_DDOT":0},{"OBJECT_NAME":"STARLINK-4145","OBJECT_ID":"2022-083F","EPOCH":"2026-03-10T12:46:14.551104","MEAN_MOTION":15.08835417,"ECCENTRICITY":0.0001339,"INCLINATION":53.2175,"RA_OF_ASC_NODE":170.3401,"ARG_OF_PERICENTER":85.3512,"MEAN_ANOMALY":274.7633,"EPHEMERIS_TYPE":0,"CLASSIFICATION_TYPE":"U","NORAD_CAT_ID":53137,"ELEMENT_SET_NO":999,"REV_AT_EPOCH":20134,"BSTAR":-5.8105e-6,"MEAN_MOTION_DOT":-3.8e-6,"MEAN_MOTION_DDOT":0},{"OBJECT_NAME":"STARLINK-4141","OBJECT_ID":"2022-083G","EPOCH":"2026-03-10T12:44:16.731744","MEAN_MOTION":15.08841958,"ECCENTRICITY":0.0001362,"INCLINATION":53.2179,"RA_OF_ASC_NODE":165.5264,"ARG_OF_PERICENTER":84.1797,"MEAN_ANOMALY":275.9351,"EPHEMERIS_TYPE":0,"CLASSIFICATION_TYPE":"U","NORAD_CAT_ID":53138,"ELEMENT_SET_NO":999,"REV_AT_EPOCH":20218,"BSTAR":5.7153e-5,"MEAN_MOTION_DOT":6.22e-6,"MEAN_MOTION_DDOT":0},{"OBJECT_NAME":"STARLINK-4185","OBJECT_ID":"2022-083H","EPOCH":"2026-03-10T12:30:20.917152","MEAN_MOTION":15.08823041,"ECCENTRICITY":0.000132,"INCLINATION":53.2181,"RA_OF_ASC_NODE":170.391,"ARG_OF_PERICENTER":94.6789,"MEAN_ANOMALY":265.4354,"EPHEMERIS_TYPE":0,"CLASSIFICATION_TYPE":"U","NORAD_CAT_ID":53139,"ELEMENT_SET_NO":999,"REV_AT_EPOCH":20134,"BSTAR":-9.0311e-5,"MEAN_MOTION_DOT":-1.724e-5,"MEAN_MOTION_DDOT":0},{"OBJECT_NAME":"STARLINK-4170","OBJECT_ID":"2022-083J","EPOCH":"2026-03-10T12:35:38.390496","MEAN_MOTION":15.08840626,"ECCENTRICITY":0.0001175,"INCLINATION":53.2169,"RA_OF_ASC_NODE":170.3728,"ARG_OF_PERICENTER":90.1337,"MEAN_ANOMALY":269.979,"EPHEMERIS_TYPE":0,"CLASSIFICATION_TYPE":"U","NORAD_CAT_ID":53140,"ELEMENT_SET_NO":999,"REV_AT_EPOCH":20134,"BSTAR":0.00010798,"MEAN_MOTION_DOT":1.431e-5,"MEAN_MOTION_DDOT":0},{"OBJECT_NAME":"STARLINK-4103","OBJECT_ID":"2022-083K","EPOCH":"2026-03-10T12:09:07.840800","MEAN_MOTION":15.08845331,"ECCENTRICITY":0.0001134,"INCLINATION":53.2164,"RA_OF_ASC_NODE":170.457,"ARG_OF_PERICENTER":86.9727,"MEAN_ANOMALY":273.1395,"EPHEMERIS_TYPE":0,"CLASSIFICATION_TYPE":"U","NORAD_CAT_ID":53141,"ELEMENT_SET_NO":999,"REV_AT_EPOCH":20134,"BSTAR":0.00013876,"MEAN_MOTION_DOT":1.921e-5,"MEAN_MOTION_DDOT":0},{"OBJECT_NAME":"STARLINK-4101","OBJECT_ID":"2022-083L","EPOCH":"2026-03-10T12:21:07.061184","MEAN_MOTION":15.08830711,"ECCENTRICITY":0.0001395,"INCLINATION":53.2192,"RA_OF_ASC_NODE":170.3942,"ARG_OF_PERICENTER":98.7625,"MEAN_ANOMALY":261.3525,"EPHEMERIS_TYPE":0,"CLASSIFICATION_TYPE":"U","NORAD_CAT_ID":53142,"ELEMENT_SET_NO":999,"REV_AT_EPOCH":20135,"BSTAR":-4.9163e-5,"MEAN_MOTION_DOT":-1.07e-5,"MEAN_MOTION_DDOT":0},{"OBJECT_NAME":"STARLINK-4102","OBJECT_ID":"2022-083M","EPOCH":"2026-03-10T12:03:49.544064","MEAN_MOTION":15.08846272,"ECCENTRICITY":0.0001331,"INCLINATION":53.2174,"RA_OF_ASC_NODE":170.4725,"ARG_OF_PERICENTER":78.715,"MEAN_ANOMALY":281.3992,"EPHEMERIS_TYPE":0,"CLASSIFICATION_TYPE":"U","NORAD_CAT_ID":53143,"ELEMENT_SET_NO":999,"REV_AT_EPOCH":20134,"BSTAR":0.00013722,"MEAN_MOTION_DOT":1.897e-5,"MEAN_MOTION_DDOT":0},{"OBJECT_NAME":"STARLINK-4100","OBJECT_ID":"2022-083N","EPOCH":"2026-03-10T12:19:44.816160","MEAN_MOTION":15.08832717,"ECCENTRICITY":0.0001372,"INCLINATION":53.2183,"RA_OF_ASC_NODE":170.4339,"ARG_OF_PERICENTER":94.9834,"MEAN_ANOMALY":265.1314,"EPHEMERIS_TYPE":0,"CLASSIFICATION_TYPE":"U","NORAD_CAT_ID":53144,"ELEMENT_SET_NO":999,"REV_AT_EPOCH":20134,"BSTAR":3.0941e-5,"MEAN_MOTION_DOT":2.04e-6,"MEAN_MOTION_DDOT":0},{"OBJECT_NAME":"STARLINK-4106","OBJECT_ID":"2022-083P","EPOCH":"2026-03-10T11:53:14.801280","MEAN_MOTION":15.08837894,"ECCENTRICITY":8.69e-5,"INCLINATION":53.2169,"RA_OF_ASC_NODE":170.5064,"ARG_OF_PERICENTER":87.9823,"MEAN_ANOMALY":272.1269,"EPHEMERIS_TYPE":0,"CLASSIFICATION_TYPE":"U","NORAD_CAT_ID":53145,"ELEMENT_SET_NO":999,"REV_AT_EPOCH":20134,"BSTAR":1.0551e-5,"MEAN_MOTION_DOT":-1.2e-6,"MEAN_MOTION_DDOT":0},{"OBJECT_NAME":"STARLINK-4094","OBJECT_ID":"2022-083R","EPOCH":"2026-03-10T11:47:56.444064","MEAN_MOTION":15.08838409,"ECCENTRICITY":0.0001105,"INCLINATION":53.218,"RA_OF_ASC_NODE":170.5237,"ARG_OF_PERICENTER":78.9793,"MEAN_ANOMALY":281.1324,"EPHEMERIS_TYPE":0,"CLASSIFICATION_TYPE":"U","NORAD_CAT_ID":53147,"ELEMENT_SET_NO":999,"REV_AT_EPOCH":20199,"BSTAR":9.8064e-5,"MEAN_MOTION_DOT":1.273e-5,"MEAN_MOTION_DDOT":0},{"OBJECT_NAME":"STARLINK-4021","OBJECT_ID":"2022-083T","EPOCH":"2026-03-10T12:27:46.594656","MEAN_MOTION":15.08836473,"ECCENTRICITY":0.000143,"INCLINATION":53.2174,"RA_OF_ASC_NODE":160.5991,"ARG_OF_PERICENTER":95.1672,"MEAN_ANOMALY":264.9484,"EPHEMERIS_TYPE":0,"CLASSIFICATION_TYPE":"U","NORAD_CAT_ID":53149,"ELEMENT_SET_NO":999,"REV_AT_EPOCH":20148,"BSTAR":7.4702e-5,"MEAN_MOTION_DOT":9.01e-6,"MEAN_MOTION_DDOT":0},{"OBJECT_NAME":"STARLINK-4038","OBJECT_ID":"2022-083U","EPOCH":"2026-03-10T12:00:01.999296","MEAN_MOTION":15.95799294,"ECCENTRICITY":0.0010404,"INCLINATION":53.2026,"RA_OF_ASC_NODE":116.0195,"ARG_OF_PERICENTER":15.4674,"MEAN_ANOMALY":275.1317,"EPHEMERIS_TYPE":0,"CLASSIFICATION_TYPE":"U","NORAD_CAT_ID":53150,"ELEMENT_SET_NO":999,"REV_AT_EPOCH":587,"BSTAR":0.00094985,"MEAN_MOTION_DOT":0.00393744,"MEAN_MOTION_DDOT":7.3374e-5},{"OBJECT_NAME":"STARLINK-4040","OBJECT_ID":"2022-083V","EPOCH":"2026-03-10T12:42:15.261120","MEAN_MOTION":15.08841325,"ECCENTRICITY":0.0001654,"INCLINATION":53.2188,"RA_OF_ASC_NODE":160.352,"ARG_OF_PERICENTER":117.3228,"MEAN_ANOMALY":242.7933,"EPHEMERIS_TYPE":0,"CLASSIFICATION_TYPE":"U","NORAD_CAT_ID":53151,"ELEMENT_SET_NO":999,"REV_AT_EPOCH":20148,"BSTAR":-8.5355e-6,"MEAN_MOTION_DOT":-4.24e-6,"MEAN_MOTION_DDOT":0},{"OBJECT_NAME":"STARLINK-4045","OBJECT_ID":"2022-083W","EPOCH":"2026-03-10T11:17:28.573440","MEAN_MOTION":15.08834284,"ECCENTRICITY":0.00014,"INCLINATION":53.2176,"RA_OF_ASC_NODE":160.6196,"ARG_OF_PERICENTER":93.9394,"MEAN_ANOMALY":266.1758,"EPHEMERIS_TYPE":0,"CLASSIFICATION_TYPE":"U","NORAD_CAT_ID":53152,"ELEMENT_SET_NO":999,"REV_AT_EPOCH":20147,"BSTAR":-3.8639e-5,"MEAN_MOTION_DOT":-9.03e-6,"MEAN_MOTION_DDOT":0},{"OBJECT_NAME":"STARLINK-4098","OBJECT_ID":"2022-083X","EPOCH":"2026-03-10T12:36:57.665952","MEAN_MOTION":15.08838093,"ECCENTRICITY":0.0001196,"INCLINATION":53.218,"RA_OF_ASC_NODE":160.3711,"ARG_OF_PERICENTER":79.6875,"MEAN_ANOMALY":280.4252,"EPHEMERIS_TYPE":0,"CLASSIFICATION_TYPE":"U","NORAD_CAT_ID":53153,"ELEMENT_SET_NO":999,"REV_AT_EPOCH":20148,"BSTAR":4.7385e-5,"MEAN_MOTION_DOT":4.66e-6,"MEAN_MOTION_DDOT":0}]
